[{"OBJECT_NAME":"STARLINK-1799","OBJECT_ID":"2020-073AF","EPOCH":"2026-03-10T00:00:02.999808","MEAN_MOTION":15.76402839,"ECCENTRICITY":0.0005505,"INCLINATION":53.0426,"RA_OF_ASC_NODE":193.868,"ARG_OF_PERICENTER":242.728,"MEAN_ANOMALY":274.3296,"EPHEMERIS_TYPE":0,"CLASSIFICATION_TYPE":"U","NORAD_CAT_ID":46699,"ELEMENT_SET_NO":999,"REV_AT_EPOCH":586,"BSTAR":0.00068876856,"MEAN_MOTION_DOT":0.00112035,"MEAN_MOTION_DDOT":0},{"OBJECT_NAME":"STARLINK-36312","OBJECT_ID":"2026-018W","EPOCH":"2026-03-09T17:04:44.273856","MEAN_MOTION":15.7519903,"ECCENTRICITY":0.00010188,"INCLINATION":97.2834,"RA_OF_ASC_NODE":134.5601,"ARG_OF_PERICENTER":70.1356,"MEAN_ANOMALY":290.0019,"EPHEMERIS_TYPE":0,"CLASSIFICATION_TYPE":"U","NORAD_CAT_ID":67609,"ELEMENT_SET_NO":999,"REV_AT_EPOCH":731,"BSTAR":0.0022338921,"MEAN_MOTION_DOT":0.00347124,"MEAN_MOTION_DDOT":0}]
